OBJECT_NAME,OBJECT_ID,EPOCH,MEAN_MOTION,ECCENTRICITY,INCLINATION,RA_OF_ASC_NODE,ARG_OF_PERICENTER,MEAN_ANOMALY,EPHEMERIS_TYPE,CLASSIFICATION_TYPE,NORAD_CAT_ID,ELEMENT_SET_NO,REV_AT_EPOCH,BSTAR,MEAN_MOTION_DOT,MEAN_MOTION_DDOT
PERSEUS-M1,2014-033AF,2026-06-11T01:57:47.182176,14.95614457,.00106881,97.9645,106.1137,324.7087,35.3425,0,U,40039,999,64972,.10964296E-3,.1158E-4,0
POLYITAN-1,2014-033AJ,2026-06-11T01:08:46.416480,15.33041546,.00082008,98.0950,187.7287,158.7578,201.4004,0,U,40042,999,65265,.52230096E-3,.16616E-3,0
TIGRISAT,2014-033AK,2026-06-10T23:38:04.983360,14.85138571,.00507194,97.7821,312.1392,95.0117,265.6891,0,U,40043,999,64470,.22020334E-3,.1873E-4,0
AEROCUBE 6A,2014-033AM,2026-06-11T05:06:02.918592,14.98041796,.00392946,97.7224,329.2251,38.0012,322.3970,0,U,40045,999,64572,.43126126E-3,.5119E-4,0
AEROCUBE 6B,2014-033AN,2026-06-11T05:17:47.628960,14.99508265,.00387986,97.7232,329.0100,29.7102,330.6313,0,U,40046,999,64586,.42964886E-3,.5298E-4,0
CANX-4,2014-034C,2026-06-11T04:58:42.051360,14.81253484,.00135739,98.3131,37.3008,35.4278,324.7833,0,U,40055,999,64364,.10575882E-3,.768E-5,0
CANX-5,2014-034D,2026-06-11T04:56:32.677728,14.81270611,.00135844,98.3133,37.3426,35.5432,324.6682,0,U,40056,999,63445,.10549807E-3,.766E-5,0
UKUBE-1,2014-037F,2026-06-11T06:49:18.860448,15.13458563,.00022181,98.4237,164.9361,140.5696,219.5694,0,U,40074,999,64766,.42764496E-3,.7572E-4,0
BRITE-PL2 (HEWELIUSZ),2014-049B,2026-06-11T05:07:55.922880,14.94575015,.0015132,97.9092,274.1682,126.1133,234.1491,0,U,40119,999,64055,.11690584E-3,.1207E-4,0
AEROCUBE 5C,2015-058B,2026-06-11T01:39:18.000576,14.91425247,.01305219,64.7678,281.6230,65.6637,295.8038,0,U,40965,999,36474,.19838087E-3,.216E-4,0
AEROCUBE 7,2015-058C,2026-06-11T00:22:52.298112,14.95686736,.01202348,64.7627,264.1448,64.1509,297.1946,0,U,40966,999,36503,.24372401E-3,.2962E-4,0
FOX-1A (AO-85),2015-058D,2026-06-10T18:42:01.514016,14.90938506,.01300789,64.7757,298.8965,59.0997,302.2830,0,U,40967,999,11261,.21076165E-3,.2273E-4,0
SINOD-D 1,2015-058E,2026-06-10T15:50:49.971840,14.95863786,.01186706,64.7758,279.3514,55.6846,305.5432,0,U,40968,999,11568,.25007952E-3,.3048E-4,0
SNAP-3 ALICE,2015-058G,2026-06-11T05:01:49.943712,15.58715815,.00298575,64.7487,124.5727,15.9498,344.2580,0,U,40970,999,11595,.12971925E-2,.1037E-2,0
LMRST-SAT,2015-058H,2026-06-10T17:35:18.930336,14.90560737,.01317411,64.7764,295.3669,61.1427,300.2832,0,U,40971,999,11259,.20044465E-3,.2139E-4,0
SNAP-3 EDDIE,2015-058J,2026-06-11T04:54:20.342304,15.59902309,.00295833,64.7413,115.3588,20.2765,339.9548,0,U,40972,999,11809,.12692171E-2,.106162E-2,0
PROPCUBE 3,2015-058K,2026-06-10T14:00:13.286304,14.94220686,.01237331,64.7690,273.1674,62.5169,298.8459,0,U,40973,999,11381,.22000923E-3,.2569E-4,0
BISONSAT,2015-058L,2026-06-11T05:29:07.003392,15.16060905,.00785643,64.7589,192.9074,49.7269,311.0689,0,U,40974,999,11471,.39824803E-3,.8123E-4,0
SNAP-3 JIMI,2015-058M,2026-06-10T22:21:32.198688,15.02245351,.01058631,64.7650,239.5636,57.9064,303.2277,0,U,40975,999,11328,.29237846E-3,.4178E-4,0
PROPCUBE 1 (FLORA),2015-058N,2026-06-11T03:38:47.616000,14.89193788,.01304867,64.7753,313.9408,63.2829,298.1569,0,U,40976,999,11536,.21331325E-3,.2195E-4,0
SINOD-D 3,2015-058P,2026-06-11T01:59:02.949792,14.93977548,.01189678,64.7732,294.8808,60.5606,300.7317,0,U,40977,999,11384,.26643243E-3,.3094E-4,0
HORYU-4,2016-012D,2026-06-10T02:36:09.976320,15.90526809,.00034613,30.9844,130.8123,226.4757,133.5616,0,U,41340,999,56968,.10043265E-2,.337518E-2,0
RAVAN,2016-067B,2026-06-11T04:27:10.181664,15.54101357,.00052553,97.9903,51.0669,47.6922,312.4775,0,U,41849,999,52676,.66496439E-3,.43231E-3,0
CELTEE 1,2016-067C,2026-06-11T03:34:58.884960,15.19622045,.00006645,98.0685,28.3047,110.8221,249.3083,0,U,41850,999,52496,.18873199E-3,.3943E-4,0
OPTICUBE 04,2016-067D,2026-06-11T02:43:52.972320,15.09635096,.00166709,98.0711,14.0811,134.5022,225.7571,0,U,41851,999,52425,.11741471E-3,.1822E-4,0
AEROCUBE 8D,2016-067E,2026-06-11T04:22:12.519840,15.24312662,.00043581,98.0698,31.8970,138.1962,221.9607,0,U,41852,999,52515,.26297166E-3,.6349E-4,0
AEROCUBE 8C,2016-067F,2026-06-11T04:59:35.970144,15.24559678,.00067956,98.0571,29.1603,85.4211,274.7801,0,U,41853,999,52515,.24004564E-3,.5833E-4,0
CORVUS BC2,2017-042X,2026-06-11T00:24:10.166976,15.06253815,.00141915,97.4050,323.6077,129.5203,230.7282,0,U,42846,999,48613,.18161414E-3,.2611E-4,0
CORVUS BC1,2017-042Y,2026-06-10T22:41:46.032288,15.06422630,.00131899,97.4079,324.3490,108.3664,251.8999,0,U,42847,999,48615,.22393883E-3,.3247E-4,0
MAKERSAT 0,2017-073D,2026-06-10T21:49:47.800128,15.31878725,.01056255,97.4633,44.3797,295.7456,63.2913,0,U,43016,999,46550,.47401268E-3,.17326E-3,0
