1 40039U 14033AF 26162.08179609 .00001158 00000+0 10964-3 0 9991 
2 40039 97.9645 106.1137 0010688 324.7087 35.3425 14.95614457649727 
1 40042U 14033AJ 26162.04775945 .00016616 00000+0 52230-3 0 9993 
2 40042 98.0950 187.7287 0008200 158.7578 201.4004 15.33041546652651 
1 40043U 14033AK 26161.98477990 .00001873 00000+0 22020-3 0 9998 
2 40043 97.7821 312.1392 0050719 95.0117 265.6891 14.85138571644704 
1 40045U 14033AM 26162.21253378 .00005119 00000+0 43126-3 0 9996 
2 40045 97.7224 329.2251 0039294 38.0012 322.3970 14.98041796645720 
1 40046U 14033AN 26162.22069015 .00005298 00000+0 42965-3 0 9999 
2 40046 97.7232 329.0100 0038798 29.7102 330.6313 14.99508265645864 
1 40055U 14034C 26162.20743115 .00000768 00000+0 10576-3 0 9998 
2 40055 98.3131 37.3008 0013573 35.4278 324.7833 14.81253484643643 
1 40056U 14034D 26162.20593377 .00000766 00000+0 10550-3 0 9992 
2 40056 98.3133 37.3426 0013584 35.5432 324.6682 14.81270611634456 
1 40074U 14037F 26162.28424607 .00007572 00000+0 42764-3 0 9996 
2 40074 98.4237 164.9361 0002218 140.5696 219.5694 15.13458563647660 
1 40119U 14049B 26162.21384170 .00001207 00000+0 11691-3 0 9996 
2 40119 97.9092 274.1682 0015132 126.1133 234.1491 14.94575015640557 
1 40965U 15058B 26162.06895834 .00002160 00000+0 19838-3 0 9993 
2 40965 64.7678 281.6230 0130521 65.6637 295.8038 14.91425247364749 
1 40966U 15058C 26162.01588308 .00002962 00000+0 24372-3 0 9993 
2 40966 64.7627 264.1448 0120234 64.1509 297.1946 14.95686736365035 
1 40967U 15058D 26161.77918419 .00002273 00000+0 21076-3 0 9999 
2 40967 64.7757 298.8965 0130078 59.0997 302.2830 14.90938506112613 
1 40968U 15058E 26161.66030060 .00003048 00000+0 25008-3 0 9995 
2 40968 64.7758 279.3514 0118670 55.6846 305.5432 14.95863786115684 
1 40970U 15058G 26162.20960583 .00103700 00000+0 12972-2 0 9992 
2 40970 64.7487 124.5727 0029857 15.9498 344.2580 15.58715815115956 
1 40971U 15058H 26161.73285799 .00002139 00000+0 20044-3 0 9993 
2 40971 64.7764 295.3669 0131741 61.1427 300.2832 14.90560737112593 
1 40972U 15058J 26162.20440211 .00106162 00000+0 12692-2 0 9999 
2 40972 64.7413 115.3588 0029583 20.2765 339.9548 15.59902309118092 
1 40973U 15058K 26161.58348711 .00002569 00000+0 22001-3 0 9994 
2 40973 64.7690 273.1674 0123733 62.5169 298.8459 14.94220686113816 
1 40974U 15058L 26162.22855328 .00008123 00000+0 39825-3 0 9998 
2 40974 64.7589 192.9074 0078564 49.7269 311.0689 15.16060905114719 
1 40975U 15058M 26161.93162267 .00004178 00000+0 29238-3 0 9992 
2 40975 64.7650 239.5636 0105863 57.9064 303.2277 15.02245351113280 
1 40976U 15058N 26162.15194000 .00002195 00000+0 21331-3 0 9991 
2 40976 64.7753 313.9408 0130486 63.2829 298.1569 14.89193788115364 
1 40977U 15058P 26162.08267303 .00003094 00000+0 26643-3 0 9991 
2 40977 64.7732 294.8808 0118967 60.5606 300.7317 14.93977548113847 
1 41340U 16012D 26161.10844880 .00337518 00000+0 10043-2 0 9997 
2 41340 30.9844 130.8123 0003461 226.4757 133.5616 15.90526809569681 
1 41849U 16067B 26162.18553451 .00043231 00000+0 66496-3 0 9991 
2 41849 97.9903 51.0669 0005255 47.6922 312.4775 15.54101357526766 
1 41850U 16067C 26162.14929265 .00003943 00000+0 18873-3 0 9991 
2 41850 98.0685 28.3047 0000664 110.8221 249.3083 15.19622045524961 
1 41851U 16067D 26162.11380755 .00001822 00000+0 11741-3 0 9995 
2 41851 98.0711 14.0811 0016670 134.5022 225.7571 15.09635096524250 
1 41852U 16067E 26162.18208935 .00006349 00000+0 26297-3 0 9993 
2 41852 98.0698 31.8970 0004358 138.1962 221.9607 15.24312662525157 
1 41853U 16067F 26162.20805521 .00005833 00000+0 24005-3 0 9993 
2 41853 98.0571 29.1603 0006795 85.4211 274.7801 15.24559678525151 
1 42846U 17042X 26162.01678434 .00002611 00000+0 18161-3 0 9997 
2 42846 97.4050 323.6077 0014191 129.5203 230.7282 15.06253815486139 
1 42847U 17042Y 26161.94567167 .00003247 00000+0 22394-3 0 9998 
2 42847 97.4079 324.3490 0013189 108.3664 251.8999 15.06422630486154 
1 43016U 17073D 26161.90958102 .00017326 00000+0 47401-3 0 9999 
2 43016 97.4633 44.3797 0105625 295.7456 63.2913 15.31878725465500 
